{
  "type": "FeatureCollection",
  "features": [
    {
      "type": "Feature",
      "properties": {
        "norad_id": 66493,
        "name": "STARLINK-35597",
        "group": "last-30-days",
        "lat": 35.0019573699029,
        "lon": -131.3948930922107,
        "alt_km": 349.91560082918295,
        "timestamp": "2025-12-03T10:52:56.222074+00:00",
        "meta_object_name": "STARLINK-35597",
        "meta_object_id": "2025-263J",
        "meta_epoch": "2025-12-03T04:00:01.998720",
        "meta_mean_motion": 15.72800335,
        "meta_eccentricity": 0.0001489,
        "meta_inclination": 42.9989,
        "meta_ra_of_asc_node": 181.6163,
        "meta_arg_of_pericenter": 262.4902,
        "meta_mean_anomaly": 329.9592,
        "meta_ephemeris_type": 0,
        "meta_classification_type": "U",
        "meta_norad_cat_id": 66493,
        "meta_element_set_no": 999,
        "meta_rev_at_epoch": 409,
        "meta_bstar": -0.016019,
        "meta_mean_motion_dot": -0.01975185,
        "meta_mean_motion_ddot": 0,
        "tle_line1": "1 66493U 25263J   25337.16668980 -.01975185  00000+0 -16019-1 0  9995",
        "tle_line2": "2 66493  42.9989 181.6163 0001489 262.4902 329.9592 15.72800335  4090"
      },
      "geometry": {
        "type": "Point",
        "coordinates": [
          -131.3948930922107,
          35.0019573699029
        ]
      }
    },
    {
      "type": "Feature",
      "properties": {
        "norad_id": 66494,
        "name": "STARLINK-35689",
        "group": "last-30-days",
        "lat": 32.260469349548664,
        "lon": -137.46050541211577,
        "alt_km": 350.23293063232177,
        "timestamp": "2025-12-03T10:52:56.222086+00:00",
        "meta_object_name": "STARLINK-35689",
        "meta_object_id": "2025-263K",
        "meta_epoch": "2025-12-03T04:00:01.998720",
        "meta_mean_motion": 15.72794894,
        "meta_eccentricity": 0.0001543,
        "meta_inclination": 42.9992,
        "meta_ra_of_asc_node": 181.6313,
        "meta_arg_of_pericenter": 268.917,
        "meta_mean_anomaly": 317.7822,
        "meta_ephemeris_type": 0,
        "meta_classification_type": "U",
        "meta_norad_cat_id": 66494,
        "meta_element_set_no": 999,
        "meta_rev_at_epoch": 409,
        "meta_bstar": -0.015951,
        "meta_mean_motion_dot": -0.01967319,
        "meta_mean_motion_ddot": 0,
        "tle_line1": "1 66494U 25263K   25337.16668980 -.01967319  00000+0 -15951-1 0  9990",
        "tle_line2": "2 66494  42.9992 181.6313 0001543 268.9170 317.7822 15.72794894  4094"
      },
      "geometry": {
        "type": "Point",
        "coordinates": [
          -137.46050541211577,
          32.260469349548664
        ]
      }
    },
    {
      "type": "Feature",
      "properties": {
        "norad_id": 66495,
        "name": "STARLINK-35832",
        "group": "last-30-days",
        "lat": 35.84870053492852,
        "lon": -129.28011134758123,
        "alt_km": 349.72946642272836,
        "timestamp": "2025-12-03T10:52:56.222097+00:00",
        "meta_object_name": "STARLINK-35832",
        "meta_object_id": "2025-263L",
        "meta_epoch": "2025-12-03T04:00:01.998720",
        "meta_mean_motion": 15.72804805,
        "meta_eccentricity": 0.0001448,
        "meta_inclination": 42.999,
        "meta_ra_of_asc_node": 181.6117,
        "meta_arg_of_pericenter": 266.9638,
        "meta_mean_anomaly": 327.4051,
        "meta_ephemeris_type": 0,
        "meta_classification_type": "U",
        "meta_norad_cat_id": 66495,
        "meta_element_set_no": 999,
        "meta_rev_at_epoch": 409,
        "meta_bstar": -0.016114,
        "meta_mean_motion_dot": -0.01985793,
        "meta_mean_motion_ddot": 0,
        "tle_line1": "1 66495U 25263L   25337.16668980 -.01985793  00000+0 -16114-1 0  9999",
        "tle_line2": "2 66495  42.9990 181.6117 0001448 266.9638 327.4051 15.72804805  4092"
      },
      "geometry": {
        "type": "Point",
        "coordinates": [
          -129.28011134758123,
          35.84870053492852
        ]
      }
    },
    {
      "type": "Feature",
      "properties": {
        "norad_id": 66496,
        "name": "STARLINK-35909",
        "group": "last-30-days",
        "lat": 36.654402668913036,
        "lon": -127.12918359774547,
        "alt_km": 349.6152678943354,
        "timestamp": "2025-12-03T10:52:56.222107+00:00",
        "meta_object_name": "STARLINK-35909",
        "meta_object_id": "2025-263M",
        "meta_epoch": "2025-12-03T04:00:01.998720",
        "meta_mean_motion": 15.7280048,
        "meta_eccentricity": 0.0001523,
        "meta_inclination": 42.999,
        "meta_ra_of_asc_node": 181.6067,
        "meta_arg_of_pericenter": 270.3621,
        "meta_mean_anomaly": 325.9201,
        "meta_ephemeris_type": 0,
        "meta_classification_type": "U",
        "meta_norad_cat_id": 66496,
        "meta_element_set_no": 999,
        "meta_rev_at_epoch": 409,
        "meta_bstar": -0.016017,
        "meta_mean_motion_dot": -0.01974933,
        "meta_mean_motion_ddot": 0,
        "tle_line1": "1 66496U 25263M   25337.16668980 -.01974933  00000+0 -16017-1 0  9996",
        "tle_line2": "2 66496  42.9990 181.6067 0001523 270.3621 325.9201 15.72800480  4097"
      },
      "geometry": {
        "type": "Point",
        "coordinates": [
          -127.12918359774547,
          36.654402668913036
        ]
      }
    },
    {
      "type": "Feature",
      "properties": {
        "norad_id": 66497,
        "name": "STARLINK-35899",
        "group": "last-30-days",
        "lat": 37.42129331321105,
        "lon": -124.9311881109803,
        "alt_km": 349.4597825393057,
        "timestamp": "2025-12-03T10:52:56.222117+00:00",
        "meta_object_name": "STARLINK-35899",
        "meta_object_id": "2025-263N",
        "meta_epoch": "2025-12-03T04:00:01.998720",
        "meta_mean_motion": 15.72800268,
        "meta_eccentricity": 0.0001475,
        "meta_inclination": 42.9989,
        "meta_ra_of_asc_node": 181.6015,
        "meta_arg_of_pericenter": 272.314,
        "meta_mean_anomaly": 325.8846,
        "meta_ephemeris_type": 0,
        "meta_classification_type": "U",
        "meta_norad_cat_id": 66497,
        "meta_element_set_no": 999,
        "meta_rev_at_epoch": 409,
        "meta_bstar": -0.016015,
        "meta_mean_motion_dot": -0.01974641,
        "meta_mean_motion_ddot": 0,
        "tle_line1": "1 66497U 25263N   25337.16668980 -.01974641  00000+0 -16015-1 0  9991",
        "tle_line2": "2 66497  42.9989 181.6015 0001475 272.3140 325.8846 15.72800268  4091"
      },
      "geometry": {
        "type": "Point",
        "coordinates": [
          -124.9311881109803,
          37.42129331321105
        ]
      }
    },
    {
      "type": "Feature",
      "properties": {
        "norad_id": 66498,
        "name": "STARLINK-35907",
        "group": "last-30-days",
        "lat": 38.14590046332598,
        "lon": -122.69028240385946,
        "alt_km": 349.5198859035663,
        "timestamp": "2025-12-03T10:52:56.222127+00:00",
        "meta_object_name": "STARLINK-35907",
        "meta_object_id": "2025-263P",
        "meta_epoch": "2025-12-03T04:00:01.998720",
        "meta_mean_motion": 15.72800625,
        "meta_eccentricity": 0.0001543,
        "meta_inclination": 42.9988,
        "meta_ra_of_asc_node": 181.5967,
        "meta_arg_of_pericenter": 262.1092,
        "meta_mean_anomaly": 338.0076,
        "meta_ephemeris_type": 0,
        "meta_classification_type": "U",
        "meta_norad_cat_id": 66498,
        "meta_element_set_no": 999,
        "meta_rev_at_epoch": 409,
        "meta_bstar": -0.016017,
        "meta_mean_motion_dot": -0.0197497,
        "meta_mean_motion_ddot": 0,
        "tle_line1": "1 66498U 25263P   25337.16668980 -.01974970  00000+0 -16017-1 0  9999",
        "tle_line2": "2 66498  42.9988 181.5967 0001543 262.1092 338.0076 15.72800625  4093"
      },
      "geometry": {
        "type": "Point",
        "coordinates": [
          -122.69028240385946,
          38.14590046332598
        ]
      }
    },
    {
      "type": "Feature",
      "properties": {
        "norad_id": 66499,
        "name": "STARLINK-35816",
        "group": "last-30-days",
        "lat": 39.46519072655372,
        "lon": -118.06912007817972,
        "alt_km": 349.2763394813619,
        "timestamp": "2025-12-03T10:52:56.222139+00:00",
        "meta_object_name": "STARLINK-35816",
        "meta_object_id": "2025-263Q",
        "meta_epoch": "2025-12-03T04:00:01.998720",
        "meta_mean_motion": 15.72797754,
        "meta_eccentricity": 0.0001539,
        "meta_inclination": 42.999,
        "meta_ra_of_asc_node": 181.5871,
        "meta_arg_of_pericenter": 269.1733,
        "meta_mean_anomaly": 334.7807,
        "meta_ephemeris_type": 0,
        "meta_classification_type": "U",
        "meta_norad_cat_id": 66499,
        "meta_element_set_no": 999,
        "meta_rev_at_epoch": 409,
        "meta_bstar": -0.015993,
        "meta_mean_motion_dot": -0.01972193,
        "meta_mean_motion_ddot": 0,
        "tle_line1": "1 66499U 25263Q   25337.16668980 -.01972193  00000+0 -15993-1 0  9997",
        "tle_line2": "2 66499  42.9990 181.5871 0001539 269.1733 334.7807 15.72797754  4098"
      },
      "geometry": {
        "type": "Point",
        "coordinates": [
          -118.06912007817972,
          39.46519072655372
        ]
      }
    }
  ]
}